{
  "type": "FeatureCollection",
  "features": [
    {
      "type": "Feature",
      "properties": {
        "norad_id": 34540,
        "name": "IRIDIUM 33 DEB",
        "group": "iridium-33-debris",
        "lat": 70.66047073299778,
        "lon": 117.94277891634046,
        "alt_km": 631.5538723488562,
        "timestamp": "2025-12-10T16:57:12.023327+00:00",
        "meta_object_name": "IRIDIUM 33 DEB",
        "meta_object_id": "1997-051JH",
        "meta_epoch": "2025-12-10T09:02:54.464064",
        "meta_mean_motion": 14.75237983,
        "meta_eccentricity": 0.0016009,
        "meta_inclination": 86.3107,
        "meta_ra_of_asc_node": 308.6869,
        "meta_arg_of_pericenter": 167.5274,
        "meta_mean_anomaly": 353.4924,
        "meta_ephemeris_type": 0,
        "meta_classification_type": "U",
        "meta_norad_cat_id": 34540,
        "meta_element_set_no": 999,
        "meta_rev_at_epoch": 88986,
        "meta_bstar": 0.0024708,
        "meta_mean_motion_dot": 0.00016789,
        "meta_mean_motion_ddot": 0,
        "tle_line1": "1 34540U 97051JH  25344.37701926  .00016789  00000+0  24708-2 0  9994",
        "tle_line2": "2 34540  86.3107 308.6869 0016009 167.5274 353.4924 14.75237983889869"
      },
      "geometry": {
        "type": "Point",
        "coordinates": [
          117.94277891634046,
          70.66047073299778
        ]
      }
    },
    {
      "type": "Feature",
      "properties": {
        "norad_id": 34648,
        "name": "IRIDIUM 33 DEB",
        "group": "iridium-33-debris",
        "lat": 4.159062578668259,
        "lon": -76.97000922739603,
        "alt_km": 787.067216648682,
        "timestamp": "2025-12-10T16:57:12.023337+00:00",
        "meta_object_name": "IRIDIUM 33 DEB",
        "meta_object_id": "1997-051JZ",
        "meta_epoch": "2025-12-10T06:43:30.393696",
        "meta_mean_motion": 14.11372346,
        "meta_eccentricity": 0.0183532,
        "meta_inclination": 86.3905,
        "meta_ra_of_asc_node": 282.939,
        "meta_arg_of_pericenter": 306.5499,
        "meta_mean_anomaly": 51.8907,
        "meta_ephemeris_type": 0,
        "meta_classification_type": "U",
        "meta_norad_cat_id": 34648,
        "meta_element_set_no": 999,
        "meta_rev_at_epoch": 84926,
        "meta_bstar": 0.012661,
        "meta_mean_motion_dot": 0.00026918,
        "meta_mean_motion_ddot": 0,
        "tle_line1": "1 34648U 97051JZ  25344.28021289  .00026918  00000+0  12661-1 0  9999",
        "tle_line2": "2 34648  86.3905 282.9390 0183532 306.5499  51.8907 14.11372346849260"
      },
      "geometry": {
        "type": "Point",
        "coordinates": [
          -76.97000922739603,
          4.159062578668259
        ]
      }
    },
    {
      "type": "Feature",
      "properties": {
        "norad_id": 34651,
        "name": "IRIDIUM 33 DEB",
        "group": "iridium-33-debris",
        "lat": -43.041205824462914,
        "lon": 137.96356150688916,
        "alt_km": 840.3370198586035,
        "timestamp": "2025-12-10T16:57:12.023348+00:00",
        "meta_object_name": "IRIDIUM 33 DEB",
        "meta_object_id": "1997-051KC",
        "meta_epoch": "2025-12-10T10:25:16.423104",
        "meta_mean_motion": 14.25753499,
        "meta_eccentricity": 0.0142039,
        "meta_inclination": 86.2848,
        "meta_ra_of_asc_node": 141.558,
        "meta_arg_of_pericenter": 211.2926,
        "meta_mean_anomaly": 147.9755,
        "meta_ephemeris_type": 0,
        "meta_classification_type": "U",
        "meta_norad_cat_id": 34651,
        "meta_element_set_no": 999,
        "meta_rev_at_epoch": 85863,
        "meta_bstar": 0.005394,
        "meta_mean_motion_dot": 0.00014272,
        "meta_mean_motion_ddot": 0,
        "tle_line1": "1 34651U 97051KC  25344.43421786  .00014272  00000+0  53940-2 0  9992",
        "tle_line2": "2 34651  86.2848 141.5580 0142039 211.2926 147.9755 14.25753499858630"
      },
      "geometry": {
        "type": "Point",
        "coordinates": [
          137.96356150688916,
          -43.041205824462914
        ]
      }
    },
    {
      "type": "Feature",
      "properties": {
        "norad_id": 34652,
        "name": "IRIDIUM 33 DEB",
        "group": "iridium-33-debris",
        "lat": 77.78737426185269,
        "lon": 143.66342065867303,
        "alt_km": 696.3057334224677,
        "timestamp": "2025-12-10T16:57:12.023387+00:00",
        "meta_object_name": "IRIDIUM 33 DEB",
        "meta_object_id": "1997-051KD",
        "meta_epoch": "2025-12-09T11:37:22.959264",
        "meta_mean_motion": 14.62008914,
        "meta_eccentricity": 0.00262076,
        "meta_inclination": 86.3314,
        "meta_ra_of_asc_node": 341.4507,
        "meta_arg_of_pericenter": 310.1115,
        "meta_mean_anomaly": 203.3524,
        "meta_ephemeris_type": 0,
        "meta_classification_type": "U",
        "meta_norad_cat_id": 34652,
        "meta_element_set_no": 999,
        "meta_rev_at_epoch": 88436,
        "meta_bstar": 0.0015009226,
        "meta_mean_motion_dot": 7.584e-05,
        "meta_mean_motion_ddot": 0,
        "tle_line1": "1 34652U 97051KD  25343.48429351  .00007584  00000+0  15009-2 0  9995",
        "tle_line2": "2 34652  86.3314 341.4507 0026207 310.1115 203.3524 14.62008914884363"
      },
      "geometry": {
        "type": "Point",
        "coordinates": [
          143.66342065867303,
          77.78737426185269
        ]
      }
    },
    {
      "type": "Feature",
      "properties": {
        "norad_id": 34690,
        "name": "IRIDIUM 33 DEB",
        "group": "iridium-33-debris",
        "lat": 15.009730772561056,
        "lon": 38.8482038326207,
        "alt_km": 702.5577100068404,
        "timestamp": "2025-12-10T16:57:12.023408+00:00",
        "meta_object_name": "IRIDIUM 33 DEB",
        "meta_object_id": "1997-051KM",
        "meta_epoch": "2025-12-09T15:10:43.095936",
        "meta_mean_motion": 14.55078564,
        "meta_eccentricity": 0.001121,
        "meta_inclination": 86.378,
        "meta_ra_of_asc_node": 38.3417,
        "meta_arg_of_pericenter": 38.8624,
        "meta_mean_anomaly": 114.3139,
        "meta_ephemeris_type": 0,
        "meta_classification_type": "U",
        "meta_norad_cat_id": 34690,
        "meta_element_set_no": 999,
        "meta_rev_at_epoch": 88049,
        "meta_bstar": 0.00073259,
        "meta_mean_motion_dot": 3.182e-05,
        "meta_mean_motion_ddot": 0,
        "tle_line1": "1 34690U 97051KM  25343.63244324  .00003182  00000+0  73259-3 0  9991",
        "tle_line2": "2 34690  86.3780  38.3417 0011210  38.8624 114.3139 14.55078564880494"
      },
      "geometry": {
        "type": "Point",
        "coordinates": [
          38.8482038326207,
          15.009730772561056
        ]
      }
    },
    {
      "type": "Feature",
      "properties": {
        "norad_id": 34693,
        "name": "IRIDIUM 33 DEB",
        "group": "iridium-33-debris",
        "lat": -73.33593621120887,
        "lon": 137.3016366334694,
        "alt_km": 501.1968867345395,
        "timestamp": "2025-12-10T16:57:12.023425+00:00",
        "meta_object_name": "IRIDIUM 33 DEB",
        "meta_object_id": "1997-051KQ",
        "meta_epoch": "2025-12-10T08:38:30.910272",
        "meta_mean_motion": 15.27015384,
        "meta_eccentricity": 0.001442,
        "meta_inclination": 86.3054,
        "meta_ra_of_asc_node": 305.0066,
        "meta_arg_of_pericenter": 56.9182,
        "meta_mean_anomaly": 94.3145,
        "meta_ephemeris_type": 0,
        "meta_classification_type": "U",
        "meta_norad_cat_id": 34693,
        "meta_element_set_no": 999,
        "meta_rev_at_epoch": 88878,
        "meta_bstar": 0.0067186,
        "meta_mean_motion_dot": 0.00182624,
        "meta_mean_motion_ddot": 0,
        "tle_line1": "1 34693U 97051KQ  25344.36007998  .00182624  00000+0  67186-2 0  9999",
        "tle_line2": "2 34693  86.3054 305.0066 0014420  56.9182  94.3145 15.27015384888786"
      },
      "geometry": {
        "type": "Point",
        "coordinates": [
          137.3016366334694,
          -73.33593621120887
        ]
      }
    },
    {
      "type": "Feature",
      "properties": {
        "norad_id": 34696,
        "name": "IRIDIUM 33 DEB",
        "group": "iridium-33-debris",
        "lat": 79.46763862671462,
        "lon": 49.50279137711478,
        "alt_km": 673.5027224048608,
        "timestamp": "2025-12-10T16:57:12.023442+00:00",
        "meta_object_name": "IRIDIUM 33 DEB",
        "meta_object_id": "1997-051KT",
        "meta_epoch": "2025-12-10T03:43:16.862592",
        "meta_mean_motion": 14.64869835,
        "meta_eccentricity": 0.00742093,
        "meta_inclination": 86.1846,
        "meta_ra_of_asc_node": 28.7244,
        "meta_arg_of_pericenter": 176.2548,
        "meta_mean_anomaly": 239.1587,
        "meta_ephemeris_type": 0,
        "meta_classification_type": "U",
        "meta_norad_cat_id": 34696,
        "meta_element_set_no": 999,
        "meta_rev_at_epoch": 86635,
        "meta_bstar": 0.0072837152,
        "meta_mean_motion_dot": 0.00040722,
        "meta_mean_motion_ddot": 0,
        "tle_line1": "1 34696U 97051KT  25344.15505628  .00040722  00000+0  72837-2 0  9993",
        "tle_line2": "2 34696  86.1846  28.7244 0074209 176.2548 239.1587 14.64869835866352"
      },
      "geometry": {
        "type": "Point",
        "coordinates": [
          49.50279137711478,
          79.46763862671462
        ]
      }
    }
  ]
}